{
  "type": "FeatureCollection",
  "features": [
    {
      "type": "Feature",
      "properties": {
        "norad_id": 30469,
        "name": "FENGYUN 1C DEB",
        "group": "fengyun-1c-debris",
        "lat": -39.28314600018151,
        "lon": -146.84954838912336,
        "alt_km": 1027.6544512513528,
        "timestamp": "2025-12-22T04:03:39.445702+00:00",
        "meta_object_name": "FENGYUN 1C DEB",
        "meta_object_id": "1999-025AGG",
        "meta_epoch": "2025-12-21T09:55:20.155008",
        "meta_mean_motion": 13.96533889,
        "meta_eccentricity": 0.01586465,
        "meta_inclination": 98.4787,
        "meta_ra_of_asc_node": 205.4451,
        "meta_arg_of_pericenter": 145.3624,
        "meta_mean_anomaly": 337.2453,
        "meta_ephemeris_type": 0,
        "meta_classification_type": "U",
        "meta_norad_cat_id": 30469,
        "meta_element_set_no": 999,
        "meta_rev_at_epoch": 95827,
        "meta_bstar": 0.00074434433,
        "meta_mean_motion_dot": 1.106e-05,
        "meta_mean_motion_ddot": 0,
        "tle_line1": "1 30469U 99025AGG 25355.41342772  .00001106  00000+0  74434-3 0  9999",
        "tle_line2": "2 30469  98.4787 205.4451 0158646 145.3624 337.2453 13.96533889958276"
      },
      "geometry": {
        "type": "Point",
        "coordinates": [
          -146.84954838912336,
          -39.28314600018151
        ]
      }
    },
    {
      "type": "Feature",
      "properties": {
        "norad_id": 30471,
        "name": "FENGYUN 1C DEB",
        "group": "fengyun-1c-debris",
        "lat": -79.3504022970182,
        "lon": 141.8792046242638,
        "alt_km": 813.8989045966537,
        "timestamp": "2025-12-22T04:03:39.445712+00:00",
        "meta_object_name": "FENGYUN 1C DEB",
        "meta_object_id": "1999-025AGJ",
        "meta_epoch": "2025-12-21T17:17:56.108256",
        "meta_mean_motion": 14.13679264,
        "meta_eccentricity": 0.0083314,
        "meta_inclination": 99.0541,
        "meta_ra_of_asc_node": 83.4336,
        "meta_arg_of_pericenter": 228.4507,
        "meta_mean_anomaly": 285.6245,
        "meta_ephemeris_type": 0,
        "meta_classification_type": "U",
        "meta_norad_cat_id": 30471,
        "meta_element_set_no": 999,
        "meta_rev_at_epoch": 96569,
        "meta_bstar": 0.0013778,
        "meta_mean_motion_dot": 2.644e-05,
        "meta_mean_motion_ddot": 0,
        "tle_line1": "1 30471U 99025AGJ 25355.72078829  .00002644  00000+0  13778-2 0  9996",
        "tle_line2": "2 30471  99.0541  83.4336 0083314 228.4507 285.6245 14.13679264965699"
      },
      "geometry": {
        "type": "Point",
        "coordinates": [
          141.8792046242638,
          -79.3504022970182
        ]
      }
    },
    {
      "type": "Feature",
      "properties": {
        "norad_id": 30472,
        "name": "FENGYUN 1C DEB",
        "group": "fengyun-1c-debris",
        "lat": -54.41342028556703,
        "lon": 109.87447320621584,
        "alt_km": 726.9560389732796,
        "timestamp": "2025-12-22T04:03:39.445724+00:00",
        "meta_object_name": "FENGYUN 1C DEB",
        "meta_object_id": "1999-025AGK",
        "meta_epoch": "2025-12-21T20:37:35.696352",
        "meta_mean_motion": 14.53940186,
        "meta_eccentricity": 0.003758,
        "meta_inclination": 98.6521,
        "meta_ra_of_asc_node": 97.2687,
        "meta_arg_of_pericenter": 51.4688,
        "meta_mean_anomaly": 73.2442,
        "meta_ephemeris_type": 0,
        "meta_classification_type": "U",
        "meta_norad_cat_id": 30472,
        "meta_element_set_no": 999,
        "meta_rev_at_epoch": 98173,
        "meta_bstar": 0.0016719,
        "meta_mean_motion_dot": 7.061e-05,
        "meta_mean_motion_ddot": 0,
        "tle_line1": "1 30472U 99025AGK 25355.85944093  .00007061  00000+0  16719-2 0  9992",
        "tle_line2": "2 30472  98.6521  97.2687 0037580  51.4688  73.2442 14.53940186981734"
      },
      "geometry": {
        "type": "Point",
        "coordinates": [
          109.87447320621584,
          -54.41342028556703
        ]
      }
    },
    {
      "type": "Feature",
      "properties": {
        "norad_id": 30474,
        "name": "FENGYUN 1C DEB",
        "group": "fengyun-1c-debris",
        "lat": -3.3551900373534154,
        "lon": 75.94425422257626,
        "alt_km": 753.828393670623,
        "timestamp": "2025-12-22T04:03:39.445734+00:00",
        "meta_object_name": "FENGYUN 1C DEB",
        "meta_object_id": "1999-025AGM",
        "meta_epoch": "2025-12-21T04:56:56.893920",
        "meta_mean_motion": 14.37856671,
        "meta_eccentricity": 0.00230135,
        "meta_inclination": 98.9286,
        "meta_ra_of_asc_node": 74.4162,
        "meta_arg_of_pericenter": 336.1204,
        "meta_mean_anomaly": 78.5978,
        "meta_ephemeris_type": 0,
        "meta_classification_type": "U",
        "meta_norad_cat_id": 30474,
        "meta_element_set_no": 999,
        "meta_rev_at_epoch": 97515,
        "meta_bstar": 0.0014360517,
        "meta_mean_motion_dot": 4.299e-05,
        "meta_mean_motion_ddot": 0,
        "tle_line1": "1 30474U 99025AGM 25355.20621405  .00004299  00000+0  14361-2 0  9993",
        "tle_line2": "2 30474  98.9286  74.4162 0023013 336.1204  78.5978 14.37856671975153"
      },
      "geometry": {
        "type": "Point",
        "coordinates": [
          75.94425422257626,
          -3.3551900373534154
        ]
      }
    },
    {
      "type": "Feature",
      "properties": {
        "norad_id": 30475,
        "name": "FENGYUN 1C DEB",
        "group": "fengyun-1c-debris",
        "lat": 30.377997885608256,
        "lon": 32.35839939352886,
        "alt_km": 857.0031334119294,
        "timestamp": "2025-12-22T04:03:39.445744+00:00",
        "meta_object_name": "FENGYUN 1C DEB",
        "meta_object_id": "1999-025AGN",
        "meta_epoch": "2025-12-21T18:03:22.371264",
        "meta_mean_motion": 14.15705699,
        "meta_eccentricity": 0.0042924,
        "meta_inclination": 98.7871,
        "meta_ra_of_asc_node": 37.1495,
        "meta_arg_of_pericenter": 264.6331,
        "meta_mean_anomaly": 162.4723,
        "meta_ephemeris_type": 0,
        "meta_classification_type": "U",
        "meta_norad_cat_id": 30475,
        "meta_element_set_no": 999,
        "meta_rev_at_epoch": 97079,
        "meta_bstar": 0.00065421,
        "meta_mean_motion_dot": 1.25e-05,
        "meta_mean_motion_ddot": 0,
        "tle_line1": "1 30475U 99025AGN 25355.75234226  .00001250  00000+0  65421-3 0  9993",
        "tle_line2": "2 30475  98.7871  37.1495 0042924 264.6331 162.4723 14.15705699970790"
      },
      "geometry": {
        "type": "Point",
        "coordinates": [
          32.35839939352886,
          30.377997885608256
        ]
      }
    },
    {
      "type": "Feature",
      "properties": {
        "norad_id": 30476,
        "name": "FENGYUN 1C DEB",
        "group": "fengyun-1c-debris",
        "lat": -32.91847641527528,
        "lon": 39.640915453276136,
        "alt_km": 808.8806318260258,
        "timestamp": "2025-12-22T04:03:39.445754+00:00",
        "meta_object_name": "FENGYUN 1C DEB",
        "meta_object_id": "1999-025AGP",
        "meta_epoch": "2025-12-21T01:19:07.603968",
        "meta_mean_motion": 14.20955213,
        "meta_eccentricity": 0.0045695,
        "meta_inclination": 99.1242,
        "meta_ra_of_asc_node": 32.5189,
        "meta_arg_of_pericenter": 275.565,
        "meta_mean_anomaly": 113.9677,
        "meta_ephemeris_type": 0,
        "meta_classification_type": "U",
        "meta_norad_cat_id": 30476,
        "meta_element_set_no": 999,
        "meta_rev_at_epoch": 96963,
        "meta_bstar": 0.0010133395,
        "meta_mean_motion_dot": 2.171e-05,
        "meta_mean_motion_ddot": 0,
        "tle_line1": "1 30476U 99025AGP 25355.05494912  .00002171  00000+0  10133-2 0  9999",
        "tle_line2": "2 30476  99.1242  32.5189 0045695 275.5650 113.9677 14.20955213969635"
      },
      "geometry": {
        "type": "Point",
        "coordinates": [
          39.640915453276136,
          -32.91847641527528
        ]
      }
    },
    {
      "type": "Feature",
      "properties": {
        "norad_id": 30477,
        "name": "FENGYUN 1C DEB",
        "group": "fengyun-1c-debris",
        "lat": -72.75944311408173,
        "lon": 110.69060436678221,
        "alt_km": 889.9673919783318,
        "timestamp": "2025-12-22T04:03:39.445767+00:00",
        "meta_object_name": "FENGYUN 1C DEB",
        "meta_object_id": "1999-025AGQ",
        "meta_epoch": "2025-12-21T12:12:28.645632",
        "meta_mean_motion": 13.23853391,
        "meta_eccentricity": 0.04347308,
        "meta_inclination": 99.425,
        "meta_ra_of_asc_node": 77.7325,
        "meta_arg_of_pericenter": 255.9878,
        "meta_mean_anomaly": 119.637,
        "meta_ephemeris_type": 0,
        "meta_classification_type": "U",
        "meta_norad_cat_id": 30477,
        "meta_element_set_no": 999,
        "meta_rev_at_epoch": 90835,
        "meta_bstar": 0.0025572317,
        "meta_mean_motion_dot": 1.761e-05,
        "meta_mean_motion_ddot": 0,
        "tle_line1": "1 30477U 99025AGQ 25355.50866488  .00001761  00000+0  25572-2 0  9998",
        "tle_line2": "2 30477  99.4250  77.7325 0434730 255.9878 119.6370 13.23853391908358"
      },
      "geometry": {
        "type": "Point",
        "coordinates": [
          110.69060436678221,
          -72.75944311408173
        ]
      }
    }
  ]
}